{
  "links" : {
    "next" : "https://api.nasa.gov/neo/rest/v1/feed?start_date=1999-12-23&end_date=1999-12-23&detailed=true&api_key=t0TVs3DtDT2H8Oy2Zy8m2eVrNsAVKAexjcZXUckd",
    "prev" : "https://api.nasa.gov/neo/rest/v1/feed?start_date=1999-12-21&end_date=1999-12-21&detailed=true&api_key=t0TVs3DtDT2H8Oy2Zy8m2eVrNsAVKAexjcZXUckd",
    "self" : "https://api.nasa.gov/neo/rest/v1/feed?start_date=1999-12-22&end_date=1999-12-22&detailed=true&api_key=t0TVs3DtDT2H8Oy2Zy8m2eVrNsAVKAexjcZXUckd"
  },
  "element_count" : 2,
  "near_earth_objects" : {
    "1999-12-22" : [ {
      "links" : {
        "self" : "https://api.nasa.gov/neo/rest/v1/neo/3725758?api_key=t0TVs3DtDT2H8Oy2Zy8m2eVrNsAVKAexjcZXUckd"
      },
      "neo_reference_id" : "3725758",
      "name" : "(2015 PN57)",
      "nasa_jpl_url" : "http://ssd.jpl.nasa.gov/sbdb.cgi?sstr=3725758",
      "absolute_magnitude_h" : 22.2,
      "estimated_diameter" : {
        "kilometers" : {
          "estimated_diameter_min" : 0.096506147,
          "estimated_diameter_max" : 0.2157943048
        },
        "meters" : {
          "estimated_diameter_min" : 96.5061469579,
          "estimated_diameter_max" : 215.7943048444
        },
        "miles" : {
          "estimated_diameter_min" : 0.059966121,
          "estimated_diameter_max" : 0.134088323
        },
        "feet" : {
          "estimated_diameter_min" : 316.6212271853,
          "estimated_diameter_max" : 707.9865871058
        }
      },
      "is_potentially_hazardous_asteroid" : false,
      "close_approach_data" : [ {
        "close_approach_date" : "1999-12-22",
        "epoch_date_close_approach" : 945849600000,
        "relative_velocity" : {
          "kilometers_per_second" : "6.8666570014",
          "kilometers_per_hour" : "24719.9652050797",
          "miles_per_hour" : "15360.0250464564"
        },
        "miss_distance" : {
          "astronomical" : "0.4403839748",
          "lunar" : "171.3093719482",
          "kilometers" : "65880504",
          "miles" : "40936248"
        },
        "orbiting_body" : "Earth"
      } ],
      "orbital_data" : {
        "orbit_id" : "14",
        "orbit_determination_date" : "2017-04-06 08:32:30",
        "orbit_uncertainty" : "4",
        "minimum_orbit_intersection" : ".240766",
        "jupiter_tisserand_invariant" : "4.036",
        "epoch_osculation" : "2458000.5",
        "eccentricity" : ".3720159314968928",
        "semi_major_axis" : "1.738952282241897",
        "inclination" : "13.47210852021952",
        "ascending_node_longitude" : "303.1942599107234",
        "orbital_period" : "837.5869924447738",
        "perihelion_distance" : "1.09203432913503",
        "perihelion_argument" : "85.57905381814038",
        "aphelion_distance" : "2.385870235348765",
        "perihelion_time" : "2458154.027441136092",
        "mean_anomaly" : "294.0129690318259",
        "mean_motion" : ".4298061016315706",
        "equinox" : "J2000"
      }
    }, {
      "links" : {
        "self" : "https://api.nasa.gov/neo/rest/v1/neo/3781446?api_key=t0TVs3DtDT2H8Oy2Zy8m2eVrNsAVKAexjcZXUckd"
      },
      "neo_reference_id" : "3781446",
      "name" : "(2017 RH15)",
      "nasa_jpl_url" : "http://ssd.jpl.nasa.gov/sbdb.cgi?sstr=3781446",
      "absolute_magnitude_h" : 22.82,
      "estimated_diameter" : {
        "kilometers" : {
          "estimated_diameter_min" : 0.0725362295,
          "estimated_diameter_max" : 0.1621959399
        },
        "meters" : {
          "estimated_diameter_min" : 72.536229467,
          "estimated_diameter_max" : 162.1959399198
        },
        "miles" : {
          "estimated_diameter_min" : 0.0450719094,
          "estimated_diameter_max" : 0.1007838534
        },
        "feet" : {
          "estimated_diameter_min" : 237.9797630846,
          "estimated_diameter_max" : 532.1389275265
        }
      },
      "is_potentially_hazardous_asteroid" : false,
      "close_approach_data" : [ {
        "close_approach_date" : "1999-12-22",
        "epoch_date_close_approach" : 945849600000,
        "relative_velocity" : {
          "kilometers_per_second" : "5.6774054933",
          "kilometers_per_hour" : "20438.6597757935",
          "miles_per_hour" : "12699.788347909"
        },
        "miss_distance" : {
          "astronomical" : "0.1031383954",
          "lunar" : "40.1208343506",
          "kilometers" : "15429284",
          "miles" : "9587313"
        },
        "orbiting_body" : "Earth"
      } ],
      "orbital_data" : {
        "orbit_id" : "2",
        "orbit_determination_date" : "2017-09-24 06:23:04",
        "orbit_uncertainty" : "6",
        "minimum_orbit_intersection" : ".0469344",
        "jupiter_tisserand_invariant" : "4.743",
        "epoch_osculation" : "2458000.5",
        "eccentricity" : ".2648842267072867",
        "semi_major_axis" : "1.388634529961705",
        "inclination" : "2.167930001141106",
        "ascending_node_longitude" : "122.4308660895295",
        "orbital_period" : "597.6960246323887",
        "perihelion_distance" : "1.020807146313762",
        "perihelion_argument" : "305.0276821238973",
        "aphelion_distance" : "1.756461913609648",
        "perihelion_time" : "2458093.337154515969",
        "mean_anomaly" : "304.0829882609566",
        "mean_motion" : ".6023128566421653",
        "equinox" : "J2000"
      }
    } ]
  }
}